satname,norad_id,inclination_deg,eccentricity,mean_motion_rev_per_day,perigee_km,apogee_km,l1,l2
STARLINK-1555,46032,53.0555,0.0001423,15.0639162,546.251760795828,548.2227223049731,1 46032U 20055F   26049.71314983  .00001859  00000+0  14367-3 0  9990,2 46032  53.0555 211.8062 0001423  93.9676 266.1476 15.06391620306037
STARLINK-1556,46033,53.0562,0.0001237,15.06397855,546.3614656323061,548.074798491979,1 46033U 20055G   26049.69471551  .00001640  00000+0  12899-3 0  9999,2 46033  53.0562 211.8889 0001237  96.2698 263.8432 15.06397855306005
STARLINK-1557,46034,53.0553,0.0001222,15.06395702,546.3784515170782,548.071009924066,1 46034U 20055H   26049.76474955  .00000721  00000+0  67282-4 0  9995,2 46034  53.0553 211.5744 0001222  94.1215 265.9913 15.06395702306016
STARLINK-1558,46035,53.0549,0.0001298,15.06383167,546.3642321999369,548.1620660786539,1 46035U 20055J   26049.70579231 -.00000496  00000+0 -14431-4 0  9992,2 46035  53.0549 211.8390 0001298  93.8606 266.2531 15.06383167306039
STARLINK-1560,46036,53.0563,0.0001203,15.06397543,546.3859679622183,548.0522086370629,1 46036U 20055K   26049.75737409  .00000554  00000+0  56049-4 0  9995,2 46036  53.0563 211.6078 0001203  92.3606 267.7521 15.06397543306046
STARLINK-1567,46038,53.0556,0.0001254,15.06399085,546.3459232220821,548.0828013437422,1 46038U 20055M   26049.76843510 -.00001356  00000+0 -72180-4 0  9996,2 46038  53.0556 211.5581 0001254  70.4967 289.6158 15.06399085306032
STARLINK-1569,46039,53.0557,0.0001384,15.06398203,546.2585964872724,548.1755344926005,1 46039U 20055N   26049.77580433  .00002045  00000+0  15615-3 0  9993,2 46039  53.0557 211.5243 0001384  91.8956 268.2191 15.06398203306039
STARLINK-1582,46043,53.0546,0.0001369,15.0638458,546.3107317329941,548.206905108078,1 46043U 20055S   26049.71684810  .00000597  00000+0  58961-4 0  9998,2 46043  53.0546 211.7892 0001369  96.9579 263.1566 15.06384580306026
STARLINK-1591,46045,53.056,0.0001246,15.06389458,546.3809653822427,548.1067702945084,1 46045U 20055U   26049.67628867 -.00001177  00000+0 -60123-4 0  9995,2 46045  53.0560 211.9718 0001246  90.2560 269.8572 15.06389458306001
STARLINK-1524,46047,53.1022,0.0001217,15.17510754,512.5279412257614,514.20533321106,1 46047U 20055W   26049.91671296  .00857901  00000+0  39301-1 0  9991,2 46047  53.1022 200.6366 0001217  80.7694 181.1398 15.17510754  5781
STARLINK-1527,46048,53.0945,0.0001641,15.15877434,517.1843225393213,519.4477384239253,1 46048U 20055X   26049.91671296  .01543389  00000+0  72421-1 0  9995,2 46048  53.0945 200.7281 0001641 106.5653 124.4481 15.15877434  5833
STARLINK-1540,46051,53.1011,0.0001838,15.17892962,510.9432814658094,513.4761729227266,1 46051U 20055AA  26049.91671296  .00112040  00000+0  53916-2 0  9993,2 46051  53.1011 200.6294 0001838  66.8335  39.6733 15.17892962  5694
STARLINK-1541,46052,53.1003,0.0001493,15.17496848,512.3798308354708,514.4376463930212,1 46052U 20055AB  26049.91671296  .00073883  00000+0  36203-2 0  9995,2 46052  53.1003 200.5263 0001493 102.9624 140.1118 15.17496848  5835
STARLINK-1543,46053,53.099,0.0002573,15.17201427,512.5298735964689,516.0767233740689,1 46053U 20055AC  26049.91671296  .00110702  00000+0  54349-2 0  9999,2 46053  53.0990 200.6485 0002573  82.2747  73.0183 15.17201427  5735
STARLINK-1548,46054,53.0986,0.0002086,15.17237361,512.7567314294192,515.6322121194435,1 46054U 20055AD  26049.91671296  .00106817  00000+0  52422-2 0  9992,2 46054  53.0986 200.6271 0002086  80.8240  46.2783 15.17237361  5571
STARLINK-1554,46055,53.0946,0.0002005,15.16269337,515.7451495496125,518.5101506743076,1 46055U 20055AE  26049.91671296  .00074414  00000+0  37759-2 0  9996,2 46055  53.0946 200.6372 0002005  88.7804 112.5457 15.16269337  5835
STARLINK-1564,46058,53.0989,0.0002201,15.1713087,512.9999208767849,516.0340671649528,1 46058U 20055AH  26049.91671296  .00109096  00000+0  53684-2 0  9999,2 46058  53.0989 201.1051 0002201  77.7513  60.6901 15.17130870  5734
STARLINK-1570,46059,53.0955,7.79e-05,15.16111698,517.0684241419649,518.1427808394319,1 46059U 20055AJ  26049.91671296  .01564818  00000+0  72836-1 0  9997,2 46059  53.0955 200.7245 0000779 139.5971 154.1162 15.16111698  5780
STARLINK-1572,46060,53.0929,1.12e-05,15.15918193,518.1151728771556,518.2696506559805,1 46060U 20055AK  26049.91671296  .00098132  00000+0  50077-2 0  9993,2 46060  53.0929 200.6862 0000112 131.2333 203.1730 15.15918193  5835
STARLINK-1573,46061,53.0999,4.88e-05,15.1687861,514.9447489609565,515.617546572179,1 46061U 20055AL  26049.91671296  .01470913  00000+0  67388-1 0  9998,2 46061  53.0999 200.7258 0000488  80.3059 272.5501 15.16878610  5733
STARLINK-1577,46063,53.0999,0.0001714,15.17106218,513.4102475880827,515.77307497317,1 46063U 20055AN  26049.91671296  .01518705  00000+0  68932-1 0  9998,2 46063  53.0999 200.6782 0001714 105.5631 112.7719 15.17106218  5831
STARLINK-1583,46064,53.0989,6.63e-05,15.16909536,514.7304269745118,515.6444817971642,1 46064U 20055AP  26049.91671296  .01522612  00000+0  69470-1 0  9999,2 46064  53.0989 200.6907 0000663  54.9061 336.3188 15.16909536  5732
STARLINK-1525,46066,53.0562,0.0001214,15.0638813,546.4071962860953,548.0886797490466,1 46066U 20055AR  26049.86336088  .00001139  00000+0  95366-4 0  9993,2 46066  53.0562 181.1328 0001214  94.0226 266.0901 15.06388130306468
STARLINK-1536,46070,53.0556,0.0001217,15.06399739,546.36954284895,548.055172882654,1 46070U 20055AV  26049.70853262  .00001380  00000+0  11151-3 0  9996,2 46070  53.0556 181.8269 0001217  94.9149 265.1979 15.06399739306454
STARLINK-1542,46073,53.0552,0.0001255,15.0640663,546.322109323829,548.0603667115711,1 46073U 20055AY  26049.83385249 -.00000941  00000+0 -44251-4 0  9990,2 46073  53.0552 181.2646 0001255  94.8876 265.2257 15.06406630306464
STARLINK-1549,46074,53.0548,0.0001334,15.06394672,546.3040438630378,548.1517312150318,1 46074U 20055AZ  26049.68642865  .00001643  00000+0  12918-3 0  9996,2 46074  53.0548 181.9273 0001334  83.3869 276.7272 15.06394672306439
STARLINK-1551,46075,53.0563,0.0001159,15.0639349,546.4288600121845,548.0341604328542,1 46075U 20055BA  26049.71222209 -.00000606  00000+0 -21810-4 0  9999,2 46075  53.0563 181.8097 0001159  90.7166 269.3956 15.06393490306442
STARLINK-1552,46076,53.057,0.0001058,15.06440022,546.3562100880517,547.8215878882784,1 46076U 20055BB  26049.67164245  .00007147  00000+0  49767-3 0  9995,2 46076  53.0570 181.9928 0001058  80.2185 279.8924 15.06440022306421
